O3B MPOWER F1           
1 54755U 22174A   24044.55130089 -.00000019  00000+0  00000+0 0  9996
2 54755   0.0621   9.1388 0006358 324.9768 280.4933  5.00118428 22605
